MAKERSAT 0              
1 43016U 17073D   26043.21312299  .00031213  00000+0  96816-3 0  9998
2 43016  97.4829 285.1219 0120162 356.7516   3.2928 15.26468741447360
SIRION PATHFINDER-2     
1 43759U 18099B   26042.66650591  .00005882  00000+0  33449-3 0  9995
2 43759  97.4453  94.7049 0009433  24.3969 335.7707 15.13209558393632
CORVUS BC4              
1 43767U 18099K   26043.10487813  .00005105  00000+0  30629-3 0  9994
2 43767  97.4265  89.7272 0010115  76.6730 283.5628 15.11328760393502
SPACEBEE-7              
1 43816U 18099BL  26043.18895387  .00334626  00000+0  16288-2 0  9993
2 43816  97.4562 127.7351 0005404 273.2821  86.7829 15.81501919395154
SHIELDS 1               
1 43850U 18104B   26042.46518754  .03020981 -14849-5  52084-3 0  9995
2 43850  84.9862 218.4156 0006001 271.2264  88.8350 16.33034857400351
M2 PATHFINDER           
1 45727U 20037E   26043.06631258  .00004356  00000+0  31946-3 0  9996
2 45727  97.8158 232.9113 0011140 212.1443 147.9104 15.04000261306688
NETSAT-4                
1 46504U 20068U   26042.98659147  .00020394  00000+0  52433-3 0  9995
2 46504  97.8631  41.5902 0008130  59.9168 300.2881 15.39281611296484
NETSAT-3                
1 46505U 20068V   26043.21469179  .00022616  00000+0  60721-3 0  9995
2 46505  97.8661  40.2374 0008125  72.8858 287.3275 15.37924110296445
NETSAT-1                
1 46506U 20068W   26042.94327644  .00016023  00000+0  53421-3 0  9999
2 46506  97.8726  35.6469 0008033  87.5182 272.6978 15.31152702296117
NETSAT-2                
1 46507U 20068X   26042.95785276  .00024632  00000+0  61289-3 0  9996
2 46507  97.8643  41.1142 0007162  83.6689 276.5371 15.40249520296426
WILDTRACKCUBE-SIMBA     
1 47941U 21022K   26040.79499797  .00303886  35145-4  11259-2 0  9995
2 47941  97.3963 320.3905 0009080 112.0244 248.1993 15.88032976271383
GREENCUBE (IO-117)      
1 53109U 22080E   26043.20824103 -.00000003  00000+0  00000+0 0  9997
2 53109  70.1655 341.7079 0009127 316.7908  43.2035  6.42583094 84031
SITRO-AIS 5 (KATYS)     
1 57176U 23091L   26043.24909178  .00015734  00000+0  60671-3 0  9998
2 57176  97.5242 106.1409 0012313 177.6572 182.4726 15.26334595145264
SITRO-AIS 6 (CHIRKIN)   
1 57192U 23091AC  26043.24151468  .00008169  00000+0  33940-3 0  9990
2 57192  97.5245 105.8246 0012699 176.5737 183.5589 15.24005850145242
SITRO-AIS 8 (ANOKHIN)   
1 57193U 23091AD  26043.26815293  .00017101  00000+0  61733-3 0  9993
2 57193  97.5235 107.2924 0011609 174.7416 185.3947 15.28503978145342
SITRO-AIS 7 (FARTUSHNIY)
1 57194U 23091AE  26043.28782384  .00010287  00000+0  42933-3 0  9999
2 57194  97.5246 105.7516 0012433 177.6027 182.5272 15.23787190145245
SITRO-AIS 10 (BURDAEV)  
1 57199U 23091AK  26043.24978733  .00022381  00000+0  68911-3 0  9997
2 57199  97.5249 111.1809 0008188 152.2712 207.8969 15.33621345145582
SITRO-AIS 9 (SHCHUKIN)  
1 57201U 23091AM  26043.24201100  .00022782  00000+0  70918-3 0  9993
2 57201  97.5248 110.9868 0008237 152.9723 207.1950 15.33268269145575
SITRO-AIS 12 (SMIRENNIY)
1 57204U 23091AQ  26043.25440553  .00023281  00000+0  71905-3 0  9996
2 57204  97.5257 111.3946 0008130 146.8427 213.3326 15.33514615145592
SITRO-AIS 11 (SHEFFER)  
1 57208U 23091AU  26043.29825668  .00022620  00000+0  69175-3 0  9990
2 57208  97.5254 111.6173 0008077 146.6717 213.5035 15.33836120145618
SITRO-AIS 25            
1 59066U 24039R   26043.24339329  .00005366  00000+0  42484-3 0  9998
2 59066  95.3948 149.2795 0148869  45.2826 316.0408 14.92401682106080
SITRO-AIS 26            
1 59067U 24039S   26043.29569063  .00005179  00000+0  41193-3 0  9992
2 59067  95.3947 149.2371 0149099  45.5155 315.8146 14.92218980106087
SITRO-AIS 27            
1 59068U 24039T   26043.29971679  .00005598  00000+0  44144-3 0  9997
2 59068  95.3948 149.4562 0148225  44.4077 316.8921 14.92608952106101
SITRO-AIS 28            
1 59071U 24039U   26043.28003652  .00005344  00000+0  42134-3 0  9993
2 59071  95.3948 149.4835 0148033  44.2783 317.0173 14.92643057106104
GRBBETA                 
1 60237U 24128C   26043.13811366  .00005115  00000+0  35752-3 0  9995
2 60237  61.9907 294.6480 0053667 108.9958 251.6960 15.05486184 87435
OOV-CUBE (TUBSAT-30)    
1 60240U 24128F   26043.13445447  .00003239  00000+0  25320-3 0  9997
2 60240  61.9960 301.4128 0056375 107.1041 253.6235 15.02063427 87320
ROBUSTA-3A (MEDITERRAN*)
1 60243U 24128J   26043.23238379  .00010972  00000+0  66937-3 0  9996
2 60243  61.9871 289.4529 0054015 103.4842 257.2279 15.09572291 87544
LASARSAT                
1 62391U 24247Q   26042.85610342  .00030805  00000+0  80129-3 0  9991
2 62391  44.9742 242.3659 0002852 241.3510 118.7090 15.38426394 63962
CROCUBE                 
1 62394U 24247T   26042.96854561  .00033845  00000+0  85133-3 0  9996
2 62394  44.9731 240.5948 0003322 226.3078 133.7534 15.39409781 63994
